OBJECT_NAME,OBJECT_ID,EPOCH,MEAN_MOTION,ECCENTRICITY,INCLINATION,RA_OF_ASC_NODE,ARG_OF_PERICENTER,MEAN_ANOMALY,EPHEMERIS_TYPE,CLASSIFICATION_TYPE,NORAD_CAT_ID,ELEMENT_SET_NO,REV_AT_EPOCH,BSTAR,MEAN_MOTION_DOT,MEAN_MOTION_DDOT
ONEWEB-0248,2021-045AH,2026-06-14T12:38:09.492000,13.15547611,.0001729,87.9010,259.7198,114.2353,245.8958,0,U,48798,999,24406,-.21193E-3,-.67E-6,0
ONEWEB-0225,2021-045AJ,2026-06-14T13:10:07.267008,13.15549128,.0001413,87.9006,259.7235,108.2039,251.9245,0,U,48799,999,24407,.34547E-3,.143E-5,0
ONEWEB-0215,2021-045AK,2026-06-14T06:58:10.096032,13.15547146,.0001431,87.9012,259.7575,115.3512,244.7766,0,U,48800,999,24391,-.25431E-3,-.83E-6,0
ONEWEB-0216,2021-045AL,2026-06-14T12:40:27.461568,13.15549253,.0001965,87.9011,259.7251,98.4323,261.7030,0,U,48801,999,24395,-.17533E-3,-.53E-6,0
ONEWEB-0239,2021-045AM,2026-06-14T12:47:17.812320,13.15548554,.0001599,87.8998,259.7306,124.5852,235.5429,0,U,48802,999,24399,-.10928E-3,-.28E-6,0
ONEWEB-0249,2021-060A,2026-06-14T11:15:21.396096,13.16595400,.0002033,87.9098,229.3179,101.7931,258.3428,0,U,48967,999,23925,-.87374E-4,-.21E-6,0
ONEWEB-0250,2021-060B,2026-06-14T10:33:15.390144,13.25833704,.0002758,87.9099,227.0891,116.3052,243.8368,0,U,48968,999,23985,.36188E-4,.29E-6,0
ONEWEB-0252,2021-060D,2026-06-14T10:10:22.795680,13.16594012,.0001941,87.9102,229.3190,92.5024,267.6329,0,U,48970,999,23929,-.71648E-4,-.15E-6,0
ONEWEB-0253,2021-060E,2026-06-14T09:54:25.247808,13.16594058,.0002078,87.9100,229.3267,101.8450,258.2914,0,U,48971,999,23922,.2102E-3,.93E-6,0
ONEWEB-0254,2021-060F,2026-06-14T10:08:06.171360,13.16595052,.0001893,87.9102,229.3221,106.1855,253.9484,0,U,48972,999,23922,.54084E-4,.34E-6,0
ONEWEB-0255,2021-060G,2026-06-14T05:34:30.931680,13.16594334,.000187,87.9096,229.3669,101.6918,258.4423,0,U,48973,999,23927,.20868E-3,.93E-6,0
ONEWEB-0256,2021-060H,2026-06-14T09:50:59.519904,13.16593562,.0002099,87.9095,229.3356,94.9015,265.2355,0,U,48974,999,23926,.67707E-4,.39E-6,0
ONEWEB-0257,2021-060J,2026-06-14T10:37:44.069088,13.16594790,.0001902,87.9096,229.3161,96.9971,263.1376,0,U,48975,999,23922,.12209E-4,.18E-6,0
ONEWEB-0258,2021-060K,2026-06-14T10:40:01.114176,13.16594371,.0002072,87.9098,229.3278,99.8089,260.3276,0,U,48976,999,23923,-.53242E-4,-.8E-7,0
ONEWEB-0259,2021-060L,2026-06-14T10:30:54.165888,13.16594543,.0002062,87.9098,229.3285,103.3287,256.8074,0,U,48977,999,23926,-.65233E-4,-.12E-6,0
ONEWEB-0260,2021-060M,2026-06-14T04:50:02.725152,13.16594457,.0002049,87.9094,229.3770,87.2596,272.8770,0,U,48978,999,23921,.29932652E-4,.24E-6,0
ONEWEB-0261,2021-060N,2026-06-14T11:24:27.038016,13.16596129,.0001701,87.9097,229.3226,98.8490,261.2833,0,U,48979,999,23930,.18088E-3,.82E-6,0
ONEWEB-0262,2021-060P,2026-06-14T10:55:58.730304,13.16594767,.0002054,87.9097,229.3125,106.2767,253.8589,0,U,48980,999,23926,.2013E-3,.9E-6,0
ONEWEB-0263,2021-060Q,2026-06-14T09:52:08.334912,13.16595586,.0001746,87.9100,229.3328,102.3323,257.8004,0,U,48981,999,23922,.42634E-3,.176E-5,0
ONEWEB-0264,2021-060R,2026-06-14T05:17:25.037952,13.16594930,.0001885,87.9098,229.3739,94.3500,265.7846,0,U,48982,999,23920,.60952E-5,.15E-6,0
ONEWEB-0266,2021-060T,2026-06-14T11:16:30.047808,13.16593326,.0002122,87.9099,229.3147,99.1034,261.0337,0,U,48984,999,23922,-.17668E-3,-.55E-6,0
ONEWEB-0267,2021-060U,2026-06-14T09:43:01.445376,13.16594809,.000183,87.9101,229.3242,97.6350,262.4989,0,U,48985,999,23922,.2817E-3,.121E-5,0
ONEWEB-0268,2021-060V,2026-06-14T10:46:50.454912,13.16595828,.0002065,87.9099,229.3251,94.2688,265.8679,0,U,48986,999,23949,.51971E-4,.33E-6,0
ONEWEB-0269,2021-060W,2026-06-14T10:19:29.991936,13.16594702,.0002202,87.9092,229.3315,94.0341,266.1042,0,U,48987,999,23926,-.59348E-4,-.1E-6,0
ONEWEB-0270,2021-060X,2026-06-14T10:44:34.842336,13.16594899,.0001849,87.9099,229.3273,107.0690,253.0643,0,U,48988,999,23930,.30894E-3,.131E-5,0
ONEWEB-0271,2021-060Y,2026-06-14T10:26:20.506848,13.16594548,.0001823,87.9098,229.3196,100.5984,259.5353,0,U,48989,999,23930,-.67316E-4,-.13E-6,0
ONEWEB-0272,2021-060Z,2026-06-14T10:58:14.558016,13.16592212,.0001919,87.9097,229.3273,91.1646,268.9705,0,U,48990,999,23925,.48119E-3,.197E-5,0
ONEWEB-0273,2021-060AA,2026-06-14T11:30:10.744992,13.16594744,.0001924,87.9102,229.3217,100.6235,259.5112,0,U,48991,999,23923,.12817E-3,.62E-6,0
ONEWEB-0274,2021-060AB,2026-06-14T04:48:54.200448,13.16594533,.00019842,87.9092,229.3801,89.0610,271.0748,0,U,48992,999,23923,.88778971E-4,.47E-6,0
ONEWEB-0275,2021-060AC,2026-06-14T10:01:15.991680,13.16595105,.0001948,87.9101,229.3255,96.1115,264.0238,0,U,48993,999,23919,.56052E-4,.34E-6,0
