ONEWEB-0248             
1 48798U 21045AH  26165.52649875 -.00000067  00000+0 -21193-3 0  9997
2 48798  87.9010 259.7198 0001729 114.2353 245.8958 13.15547611244063
ONEWEB-0225             
1 48799U 21045AJ  26165.54869522  .00000143  00000+0  34547-3 0  9993
2 48799  87.9006 259.7235 0001413 108.2039 251.9245 13.15549128244078
ONEWEB-0215             
1 48800U 21045AK  26165.29039463 -.00000083  00000+0 -25431-3 0  9998
2 48800  87.9012 259.7575 0001431 115.3512 244.7766 13.15547146243918
ONEWEB-0216             
1 48801U 21045AL  26165.52809562 -.00000053  00000+0 -17533-3 0  9991
2 48801  87.9011 259.7251 0001965  98.4323 261.7030 13.15549253243950
ONEWEB-0239             
1 48802U 21045AM  26165.53284505 -.00000028  00000+0 -10928-3 0  9990
2 48802  87.8998 259.7306 0001599 124.5852 235.5429 13.15548554243994
ONEWEB-0249             
1 48967U 21060A   26165.46899764 -.00000021  00000+0 -87374-4 0  9993
2 48967  87.9098 229.3179 0002033 101.7931 258.3428 13.16595400239257
ONEWEB-0250             
1 48968U 21060B   26165.43976146  .00000029  00000+0  36188-4 0  9994
2 48968  87.9099 227.0891 0002758 116.3052 243.8368 13.25833704239855
ONEWEB-0252             
1 48970U 21060D   26165.42387495 -.00000015  00000+0 -71648-4 0  9996
2 48970  87.9102 229.3190 0001941  92.5024 267.6329 13.16594012239292
ONEWEB-0253             
1 48971U 21060E   26165.41279222  .00000093  00000+0  21020-3 0  9996
2 48971  87.9100 229.3267 0002078 101.8450 258.2914 13.16594058239224
ONEWEB-0254             
1 48972U 21060F   26165.42229365  .00000034  00000+0  54084-4 0  9993
2 48972  87.9102 229.3221 0001893 106.1855 253.9484 13.16595052239227
ONEWEB-0255             
1 48973U 21060G   26165.23230245  .00000093  00000+0  20868-3 0  9999
2 48973  87.9096 229.3669 0001870 101.6918 258.4423 13.16594334239271
ONEWEB-0256             
1 48974U 21060H   26165.41041111  .00000039  00000+0  67707-4 0  9996
2 48974  87.9095 229.3356 0002099  94.9015 265.2355 13.16593562239261
ONEWEB-0257             
1 48975U 21060J   26165.44287117  .00000018  00000+0  12209-4 0  9992
2 48975  87.9096 229.3161 0001902  96.9971 263.1376 13.16594790239222
ONEWEB-0258             
1 48976U 21060K   26165.44445734 -.00000008  00000+0 -53242-4 0  9997
2 48976  87.9098 229.3278 0002072  99.8089 260.3276 13.16594371239239
ONEWEB-0259             
1 48977U 21060L   26165.43812692 -.00000012  00000+0 -65233-4 0  9996
2 48977  87.9098 229.3285 0002062 103.3287 256.8074 13.16594543239268
ONEWEB-0260             
1 48978U 21060M   26165.20142043  .00000024  00000+0  29933-4 0  9996
2 48978  87.9094 229.3770 0002049  87.2596 272.8770 13.16594457239212
ONEWEB-0261             
1 48979U 21060N   26165.47531294  .00000082  00000+0  18088-3 0  9998
2 48979  87.9097 229.3226 0001701  98.8490 261.2833 13.16596129239307
ONEWEB-0262             
1 48980U 21060P   26165.45554086  .00000090  00000+0  20130-3 0  9992
2 48980  87.9097 229.3125 0002054 106.2767 253.8589 13.16594767239266
ONEWEB-0263             
1 48981U 21060Q   26165.41120758  .00000176  00000+0  42634-3 0  9992
2 48981  87.9100 229.3328 0001746 102.3323 257.8004 13.16595586239221
ONEWEB-0264             
1 48982U 21060R   26165.22042868  .00000015  00000+0  60952-5 0  9994
2 48982  87.9098 229.3739 0001885  94.3500 265.7846 13.16594930239207
ONEWEB-0266             
1 48984U 21060T   26165.46979222 -.00000055  00000+0 -17668-3 0  9995
2 48984  87.9099 229.3147 0002122  99.1034 261.0337 13.16593326239227
ONEWEB-0267             
1 48985U 21060U   26165.40487784  .00000121  00000+0  28170-3 0  9999
2 48985  87.9101 229.3242 0001830  97.6350 262.4989 13.16594809239222
ONEWEB-0268             
1 48986U 21060V   26165.44919508  .00000033  00000+0  51971-4 0  9996
2 48986  87.9099 229.3251 0002065  94.2688 265.8679 13.16595828239491
ONEWEB-0269             
1 48987U 21060W   26165.43020824 -.00000010  00000+0 -59348-4 0  9993
2 48987  87.9092 229.3315 0002202  94.0341 266.1042 13.16594702239266
ONEWEB-0270             
1 48988U 21060X   26165.44762549  .00000131  00000+0  30894-3 0  9998
2 48988  87.9099 229.3273 0001849 107.0690 253.0643 13.16594899239309
ONEWEB-0271             
1 48989U 21060Y   26165.43495957 -.00000013  00000+0 -67316-4 0  9995
2 48989  87.9098 229.3196 0001823 100.5984 259.5353 13.16594548239309
ONEWEB-0272             
1 48990U 21060Z   26165.45711294  .00000197  00000+0  48119-3 0  9994
2 48990  87.9097 229.3273 0001919  91.1646 268.9705 13.16592212239257
ONEWEB-0273             
1 48991U 21060AA  26165.47929103  .00000062  00000+0  12817-3 0  9994
2 48991  87.9102 229.3217 0001924 100.6235 259.5112 13.16594744239237
ONEWEB-0274             
1 48992U 21060AB  26165.20062732  .00000047  00000+0  88779-4 0  9996
2 48992  87.9092 229.3801 0001984  89.0610 271.0748 13.16594533239238
ONEWEB-0275             
1 48993U 21060AC  26165.41754620  .00000034  00000+0  56052-4 0  9999
2 48993  87.9101 229.3255 0001948  96.1115 264.0238 13.16595105239199
